E-SPACE_L_00027020-298
1 95599U 22933SM  26070.40829861  .00000000  00000+0  00000-0 0  9998
2 95599  98.0000 190.0000 0000000   0.0000 299.1111 14.77160949    19
E-SPACE_L_00027020-299
1 95600U 22161EY  26070.40829861  .00000000  00000+0  00000-0 0  9994
2 95600  98.0000 190.0000 0000000   0.0000 300.1111 14.77160949    15
E-SPACE_L_00027020-300
1 95601U 25474PK  26070.40829861  .00000000  00000+0  00000-0 0  9995
2 95601  98.0000 190.0000 0000000   0.0000 301.1111 14.77160949    17
E-SPACE_L_00027020-301
1 95602U 26933RZ  26070.40829861  .00000000  00000+0  00000-0 0  9997
2 95602  98.0000 190.0000 0000000   0.0000 302.1111 14.77160949    19
E-SPACE_L_00027020-302
1 95603U 25632MC  26070.40829861  .00000000  00000+0  00000-0 0  9993
2 95603  98.0000 190.0000 0000000   0.0000 303.1111 14.77160949    11
E-SPACE_L_00027020-303
1 95604U 26757PN  26070.40829861  .00000000  00000+0  00000-0 0  9993
2 95604  98.0000 190.0000 0000000   0.0000 304.1111 14.77160949    13
E-SPACE_L_00027020-304
1 95605U 23782DV  26070.40829861  .00000000  00000+0  00000-0 0  9999
2 95605  98.0000 190.0000 0000000   0.0000 305.1111 14.77160949    15
E-SPACE_L_00027020-305
1 95606U 26871ZO  26070.40829861  .00000000  00000+0  00000-0 0  9992
2 95606  98.0000 190.0000 0000000   0.0000 306.1111 14.77160949    17
E-SPACE_L_00027020-306
1 95607U 24343EH  26070.40829861  .00000000  00000+0  00000-0 0  9995
2 95607  98.0000 190.0000 0000000   0.0000 307.1111 14.77160949    19
E-SPACE_L_00027020-307
1 95608U 24598YQ  26070.40829861  .00000000  00000+0  00000-0 0  9998
2 95608  98.0000 190.0000 0000000   0.0000 308.1111 14.77160949    11
E-SPACE_L_00027020-308
1 95609U 22031OD  26070.40829861  .00000000  00000+0  00000-0 0  9999
2 95609  98.0000 190.0000 0000000   0.0000 309.1111 14.77160949    13
E-SPACE_L_00027020-309
1 95610U 23219BR  26070.40829861  .00000000  00000+0  00000-0 0  9990
2 95610  98.0000 190.0000 0000000   0.0000 310.1111 14.77160949    17
E-SPACE_L_00027020-310
1 95611U 26058CH  26070.40829861  .00000000  00000+0  00000-0 0  9995
2 95611  98.0000 190.0000 0000000   0.0000 311.1111 14.77160949    19
E-SPACE_L_00027020-311
1 95612U 23718WA  26070.40829861  .00000000  00000+0  00000-0 0  9996
2 95612  98.0000 190.0000 0000000   0.0000 312.1111 14.77160949    11
E-SPACE_L_00027020-312
1 95613U 22771VD  26070.40829861  .00000000  00000+0  00000-0 0  9995
2 95613  98.0000 190.0000 0000000   0.0000 313.1111 14.77160949    13
E-SPACE_L_00027020-313
1 95614U 25585KQ  26070.40829861  .00000000  00000+0  00000-0 0  9992
2 95614  98.0000 190.0000 0000000   0.0000 314.1111 14.77160949    15
E-SPACE_L_00027020-314
1 95615U 22706NF  26070.40829861  .00000000  00000+0  00000-0 0  9995
2 95615  98.0000 190.0000 0000000   0.0000 315.1111 14.77160949    17
E-SPACE_L_00027020-315
1 95616U 26330HY  26070.40829861  .00000000  00000+0  00000-0 0  9993
2 95616  98.0000 190.0000 0000000   0.0000 316.1111 14.77160949    19
E-SPACE_L_00027020-316
1 95617U 24211RD  26070.40829861  .00000000  00000+0  00000-0 0  9990
2 95617  98.0000 190.0000 0000000   0.0000 317.1111 14.77160949    11
E-SPACE_L_00027020-317
1 95618U 25542FE  26070.40829861  .00000000  00000+0  00000-0 0  9999
2 95618  98.0000 190.0000 0000000   0.0000 318.1111 14.77160949    13
E-SPACE_L_00027020-318
1 95619U 22331BI  26070.40829861  .00000000  00000+0  00000-0 0  9993
2 95619  98.0000 190.0000 0000000   0.0000 319.1111 14.77160949    15
E-SPACE_L_00027020-319
1 95620U 22991BZ  26070.40829861  .00000000  00000+0  00000-0 0  9997
2 95620  98.0000 190.0000 0000000   0.0000 320.1111 14.77160949    19
E-SPACE_L_00027020-320
1 95621U 23073OF  26070.40829861  .00000000  00000+0  00000-0 0  9990
2 95621  98.0000 190.0000 0000000   0.0000 321.1111 14.77160949    11
E-SPACE_L_00027020-321
1 95622U 25461K   26070.40829861  .00000000  00000+0  00000-0 0  9994
2 95622  98.0000 190.0000 0000000   0.0000 322.1111 14.77160949    13
E-SPACE_L_00027020-322
1 95623U 22383YH  26070.40829861  .00000000  00000+0  00000-0 0  9995
2 95623  98.0000 190.0000 0000000   0.0000 323.1111 14.77160949    15
E-SPACE_L_00027020-323
1 95624U 25500W   26070.40829861  .00000000  00000+0  00000-0 0  9990
2 95624  98.0000 190.0000 0000000   0.0000 324.1111 14.77160949    17
E-SPACE_L_00027020-324
1 95625U 24282GF  26070.40829861  .00000000  00000+0  00000-0 0  9997
2 95625  98.0000 190.0000 0000000   0.0000 325.1111 14.77160949    19
E-SPACE_L_00027020-325
1 95626U 24486EI  26070.40829861  .00000000  00000+0  00000-0 0  9994
2 95626  98.0000 190.0000 0000000   0.0000 326.1111 14.77160949    11
E-SPACE_L_00027020-326
1 95627U 22776GH  26070.40829861  .00000000  00000+0  00000-0 0  9995
2 95627  98.0000 190.0000 0000000   0.0000 327.1111 14.77160949    13
E-SPACE_L_00027020-327
1 95628U 23783IV  26070.40829861  .00000000  00000+0  00000-0 0  9995
2 95628  98.0000 190.0000 0000000   0.0000 328.1111 14.77160949    15
E-SPACE_L_00027020-328
1 95629U 22772UC  26070.40829861  .00000000  00000+0  00000-0 0  9993
2 95629  98.0000 190.0000 0000000   0.0000 329.1111 14.77160949    17
E-SPACE_L_00027020-329
1 95630U 22507TJ  26070.40829861  .00000000  00000+0  00000-0 0  9991
2 95630  98.0000 190.0000 0000000   0.0000 330.1111 14.77160949    11
E-SPACE_L_00027020-330
1 95631U 23175FE  26070.40829861  .00000000  00000+0  00000-0 0  9994
2 95631  98.0000 190.0000 0000000   0.0000 331.1111 14.77160949    13
E-SPACE_L_00027020-331
1 95632U 23677CW  26070.40829861  .00000000  00000+0  00000-0 0  9992
2 95632  98.0000 190.0000 0000000   0.0000 332.1111 14.77160949    15
E-SPACE_L_00027020-332
1 95633U 22619XG  26070.40829861  .00000000  00000+0  00000-0 0  9998
2 95633  98.0000 190.0000 0000000   0.0000 333.1111 14.77160949    17
E-SPACE_L_00027020-333
1 95634U 26283FF  26070.40829861  .00000000  00000+0  00000-0 0  9990
2 95634  98.0000 190.0000 0000000   0.0000 334.1111 14.77160949    19
E-SPACE_L_00027020-334
1 95635U 26655GQ  26070.40829861  .00000000  00000+0  00000-0 0  9994
2 95635  98.0000 190.0000 0000000   0.0000 335.1111 14.77160949    11
E-SPACE_L_00027020-335
1 95636U 22887XA  26070.40829861  .00000000  00000+0  00000-0 0  9998
2 95636  98.0000 190.0000 0000000   0.0000 336.1111 14.77160949    13
E-SPACE_L_00027020-336
1 95637U 22997OD  26070.40829861  .00000000  00000+0  00000-0 0  9991
2 95637  98.0000 190.0000 0000000   0.0000 337.1111 14.77160949    15
E-SPACE_L_00027020-337
1 95638U 24110YR  26070.40829861  .00000000  00000+0  00000-0 0  9991
2 95638  98.0000 190.0000 0000000   0.0000 338.1111 14.77160949    17
E-SPACE_L_00027020-338
1 95639U 23790TO  26070.40829861  .00000000  00000+0  00000-0 0  9995
2 95639  98.0000 190.0000 0000000   0.0000 339.1111 14.77160949    19
E-SPACE_L_00027020-339
1 95640U 23140FK  26070.40829861  .00000000  00000+0  00000-0 0  9996
2 95640  98.0000 190.0000 0000000   0.0000 340.1111 14.77160949    13
E-SPACE_L_00027020-340
1 95641U 24740OI  26070.40829861  .00000000  00000+0  00000-0 0  9994
2 95641  98.0000 190.0000 0000000   0.0000 341.1111 14.77160949    15
E-SPACE_L_00027020-341
1 95642U 22778ID  26070.40829861  .00000000  00000+0  00000-0 0  9994
2 95642  98.0000 190.0000 0000000   0.0000 342.1111 14.77160949    17
E-SPACE_L_00027020-342
1 95643U 26027VE  26070.40829861  .00000000  00000+0  00000-0 0  9996
2 95643  98.0000 190.0000 0000000   0.0000 343.1111 14.77160949    19
E-SPACE_L_00027020-343
1 95644U 25854RL  26070.40829861  .00000000  00000+0  00000-0 0  9994
2 95644  98.0000 190.0000 0000000   0.0000 344.1111 14.77160949    11
E-SPACE_L_00027020-344
1 95645U 26995AN  26070.40829861  .00000000  00000+0  00000-0 0  9992
2 95645  98.0000 190.0000 0000000   0.0000 345.1111 14.77160949    13
E-SPACE_L_00027020-345
1 95646U 26130DO  26070.40829861  .00000000  00000+0  00000-0 0  9994
2 95646  98.0000 190.0000 0000000   0.0000 346.1111 14.77160949    15
E-SPACE_L_00027020-346
1 95647U 22599HG  26070.40829861  .00000000  00000+0  00000-0 0  9990
2 95647  98.0000 190.0000 0000000   0.0000 347.1111 14.77160949    17
E-SPACE_L_00027020-347
1 95648U 24431KQ  26070.40829861  .00000000  00000+0  00000-0 0  9998
2 95648  98.0000 190.0000 0000000   0.0000 348.1111 14.77160949    19
E-SPACE_L_00027020-348
1 95649U 26166ES  26070.40829861  .00000000  00000+0  00000-0 0  9996
2 95649  98.0000 190.0000 0000000   0.0000 349.1111 14.77160949    11
E-SPACE_L_00027020-349
1 95650U 25956KC  26070.40829861  .00000000  00000+0  00000-0 0  9994
2 95650  98.0000 190.0000 0000000   0.0000 350.1111 14.77160949    15
E-SPACE_L_00027020-350
1 95651U 22815RD  26070.40829861  .00000000  00000+0  00000-0 0  9996
2 95651  98.0000 190.0000 0000000   0.0000 351.1111 14.77160949    17
E-SPACE_L_00027020-351
1 95652U 23437GP  26070.40829861  .00000000  00000+0  00000-0 0  9998
2 95652  98.0000 190.0000 0000000   0.0000 352.1111 14.77160949    19
E-SPACE_L_00027020-352
1 95653U 24286NG  26070.40829861  .00000000  00000+0  00000-0 0  9992
2 95653  98.0000 190.0000 0000000   0.0000 353.1111 14.77160949    11
E-SPACE_L_00027020-353
1 95654U 25956PZ  26070.40829861  .00000000  00000+0  00000-0 0  9998
2 95654  98.0000 190.0000 0000000   0.0000 354.1111 14.77160949    13
E-SPACE_L_00027020-354
1 95655U 25245XC  26070.40829861  .00000000  00000+0  00000-0 0  9990
2 95655  98.0000 190.0000 0000000   0.0000 355.1111 14.77160949    15
E-SPACE_L_00027020-355
1 95656U 26750ZT  26070.40829861  .00000000  00000+0  00000-0 0  9993
2 95656  98.0000 190.0000 0000000   0.0000 356.1111 14.77160949    17
E-SPACE_L_00027020-356
1 95657U 23978HO  26070.40829861  .00000000  00000+0  00000-0 0  9993
2 95657  98.0000 190.0000 0000000   0.0000 357.1111 14.77160949    19
E-SPACE_L_00027020-357
1 95658U 23920HD  26070.40829861  .00000000  00000+0  00000-0 0  9991
2 95658  98.0000 190.0000 0000000   0.0000 358.1111 14.77160949    11
E-SPACE_L_00027020-358
1 95659U 23043NH  26070.40829861  .00000000  00000+0  00000-0 0  9998
2 95659  98.0000 190.0000 0000000   0.0000 359.1111 14.77160949    13
